     2.100          NAVIGATION                              RINEX VERSION / TYPE
fic2rin                                 03/07/2012 00:09:10 PGM / RUN BY / DATE
                                                            END OF HEADER
32 12  3  6  4  0  0.0 -.416547525674D-03 -.500222085975D-11  .000000000000D+00
     .770000000000D+02 -.121562500000D+02  .520093092536D-08 -.583265492332D+00
    -.661239027977D-06  .118520114338D-01  .454671680927D-05  .515371924400D+04
     .187200000000D+06 -.931322574615D-07  .140957789318D+01 -.229105353355D-06
     .951927530917D+00  .288625000000D+03 -.607552692974D+00 -.860821570959D-08
    -.603596570791D-10  .100000000000D+01  .167800000000D+04  .000000000000D+00
     .240000000000D+01  .000000000000D+00 -.279396772385D-08  .770000000000D+02
     .180006000000D+06  .400000000000D+01
 1 12  3  6  6  0  0.0  .226776115596D-03  .795807864051D-11  .000000000000D+00
     .620000000000D+02  .389687500000D+02  .450018745087D-08 -.138345140368D+00
     .200793147087D-05  .574352568947D-03  .107642263174D-04  .515366141319D+04
     .194400000000D+06  .242143869400D-07  .269397555112D+00  .353902578354D-07
     .960603979549D+00  .168687500000D+03  .761553894851D+00 -.803283459980D-08
     .463590738987D-09  .100000000000D+01  .167800000000D+04  .000000000000D+00
     .240000000000D+01  .000000000000D+00  .838190317154D-08  .620000000000D+02
     .187206000000D+06  .400000000000D+01
 2 12  3  6  6  0  0.0  .381686724722D-03  .147792889038D-11  .000000000000D+00
     .780000000000D+02  .387812500000D+02  .494949188049D-08  .135450031194D+01
     .219605863094D-05  .109826185508D-01  .113192945719D-04  .515366184998D+04
     .194400000000D+06  .204890966415D-07  .257444189001D+00  .163912773132D-06
     .939170896969D+00  .150812500000D+03 -.284772941305D+01 -.829748848084D-08
     .318227541169D-09  .100000000000D+01  .167800000000D+04  .000000000000D+00
     .240000000000D+01  .000000000000D+00 -.172294676304D-07  .780000000000D+02
     .187206000000D+06  .400000000000D+01
 3 12  3  6  6  0  0.0  .185575336218D-04  .511590769747D-11  .000000000000D+00
     .108000000000D+03 -.111562500000D+03  .530022077547D-08  .149632313042D+01
    -.595301389694D-05  .150641599903D-01  .862218439579D-05  .515371213531D+04
     .194400000000D+06 -.340864062309D-06 -.904748418472D+00 -.189989805222D-06
     .930653107655D+00  .202468750000D+03  .117264720523D+01 -.858785771874D-08
    -.360372153804D-09  .100000000000D+01  .167800000000D+04  .000000000000D+00
     .240000000000D+01  .000000000000D+00 -.419095158577D-08  .108000000000D+03
     .187206000000D+06  .400000000000D+01
 4 12  3  6  6  0  0.0  .114338006824D-03  .114823706099D-10  .000000000000D+00
     .270000000000D+02  .393437500000D+02  .488877506568D-08 -.185033724970D+01
     .197999179363D-05  .100311543792D-01  .108145177364D-04  .515356874275D+04
     .194400000000D+06  .162050127983D-06  .274444670762D+00 -.819563865662D-07
     .938225246242D+00  .156937500000D+03  .838764636657D+00 -.808319384033D-08
     .578238371663D-09  .100000000000D+01  .167800000000D+04  .000000000000D+00
     .240000000000D+01  .000000000000D+00 -.605359673500D-08  .270000000000D+02
     .187206000000D+06  .400000000000D+01
 5 12  3  6  6  0  0.0 -.290539581329D-03 -.432009983342D-11  .000000000000D+00
     .770000000000D+02  .437500000000D+01  .525343311229D-08 -.299698888343D+01
     .212341547012D-06  .269596953876D-02  .406987965107D-05  .515360611534D+04
     .194400000000D+06 -.372529029846D-08  .132048240051D+01  .931322574615D-08
     .951300484729D+00  .298093750000D+03  .291431671733D+00 -.852428364206D-08
    -.103575742917D-10  .100000000000D+01  .167800000000D+04  .000000000000D+00
     .240000000000D+01  .000000000000D+00 -.102445483208D-07  .770000000000D+02
     .187206000000D+06  .400000000000D+01
 6 12  3  6  6  0  0.0  .317026861012D-04  .454747350886D-12  .000000000000D+00
     .100000000000D+03 -.100937500000D+03  .499806533234D-08 -.286392705269D+01
    -.514648854733D-05  .711101456545D-02  .917725265026D-05  .515370265007D+04
     .194400000000D+06 -.707805156708D-07 -.828772439504D+00  .104308128357D-06
     .937650983601D+00  .188406250000D+03 -.598210530304D+00 -.820784188956D-08
    -.308941440080D-09  .100000000000D+01  .167800000000D+04  .000000000000D+00
     .240000000000D+01  .000000000000D+00 -.512227416039D-08  .100000000000D+03
     .187206000000D+06  .400000000000D+01
 7 12  3  6  6  0  0.0  .621993094683D-04  .295585778076D-11  .000000000000D+00
     .250000000000D+02  .112156250000D+03  .410731394325D-08 -.135226570604D+00
     .585615634918D-05  .512528209947D-02  .926479697227D-05  .515362396049D+04
     .194400000000D+06  .931322574615D-07 -.285306345375D+01  .223517417908D-07
     .975952853131D+00  .209250000000D+03 -.301246561605D+01 -.802640576059D-08
     .433232331580D-09  .100000000000D+01  .167800000000D+04  .000000000000D+00
     .240000000000D+01  .000000000000D+00 -.107102096081D-07  .250000000000D+02
     .187206000000D+06  .400000000000D+01
 8 12  3  6  6  0  0.0  .745058059692D-06  .113686837722D-12  .000000000000D+00
     .300000000000D+02  .113406250000D+03  .369408244479D-08 -.748685760213D+00
     .588782131672D-05  .121066238498D-01  .870041549206D-05  .515370157242D+04
     .194400000000D+06  .275671482086D-06 -.277155771320D+01 -.670552253723D-07
     .997992157259D+00  .228812500000D+03 -.297796853751D+01 -.782889753358D-08
     .512878506306D-09  .100000000000D+01  .167800000000D+04  .000000000000D+00
     .240000000000D+01  .000000000000D+00 -.465661287308D-08  .300000000000D+02
     .187206000000D+06  .400000000000D+01
 9 12  3  6  6  0  0.0  .142914708704D-03  .250111042988D-11  .000000000000D+00
     .990000000000D+02  .965000000000D+02  .402159608705D-08 -.801654049115D+00
     .513345003128D-05  .172384089092D-01  .101681798697D-04  .515363336372D+04
     .194400000000D+06 -.244006514549D-06 -.287938341710D+01  .596046447754D-07
     .984741868920D+00  .204000000000D+03  .160554579089D+01 -.810855203945D-08
     .434660962517D-09  .100000000000D+01  .167800000000D+04  .000000000000D+00
     .340000000000D+01  .000000000000D+00 -.558793544769D-08  .990000000000D+02
     .187206000000D+06  .400000000000D+01
10 12  3  6  6  0  0.0 -.312835909426D-04 -.136424205266D-11  .000000000000D+00
     .105000000000D+03 -.284375000000D+01  .528522015063D-08 -.262665856671D+01
    -.178813934326D-06  .112097362289D-01  .399164855480D-05  .515366873169D+04
     .194400000000D+06  .502914190292D-07  .134253115655D+01 -.108033418655D-06
     .946185970981D+00  .295406250000D+03  .746351719768D+00 -.842356516101D-08
     .175007289756D-10  .100000000000D+01  .167800000000D+04  .000000000000D+00
     .340000000000D+01  .000000000000D+00 -.232830643654D-08  .105000000000D+03
     .187206000000D+06  .400000000000D+01
11 12  3  6  6  0  0.0 -.238889828324D-03 -.363797880709D-11  .000000000000D+00
     .102000000000D+03  .152187500000D+02  .612025493318D-08  .195887334808D-01
     .935047864914D-06  .127733089030D-01  .118035823107D-04  .515368188286D+04
     .194400000000D+06 -.931322574615D-07  .562693884173D-02  .236555933952D-06
     .888563272158D+00  .112906250000D+03  .103067712064D+01 -.896608775926D-08
     .297512392585D-09  .100000000000D+01  .167800000000D+04  .000000000000D+00
     .240000000000D+01  .000000000000D+00 -.116415321827D-07  .102000000000D+03
     .187206000000D+06  .400000000000D+01
12 12  3  6  6  0  0.0  .562602654099D-04  .216004991671D-11  .000000000000D+00
     .138000000000D+03 -.521875000000D+01  .473376860903D-08 -.270424961017D+00
    -.284984707832D-06  .391426938586D-02  .189803540707D-05  .515354968071D+04
     .194400000000D+06  .102445483208D-06 -.179714133367D+01  .298023223877D-07
     .978417447311D+00  .354593750000D+03 -.488320869896D-01 -.847356724380D-08
     .107147320259D-10  .100000000000D+01  .167800000000D+04  .000000000000D+00
     .240000000000D+01  .000000000000D+00 -.121071934700D-07  .138000000000D+03
     .187206000000D+06  .400000000000D+01
13 12  3  6  6  0  0.0  .221117399633D-03 -.216004991671D-11  .000000000000D+00
     .850000000000D+02 -.110625000000D+02  .365265214762D-08  .224132661026D+01
    -.555068254471D-06  .485048489645D-02  .121910125017D-04  .515371108627D+04
     .194400000000D+06  .689178705215D-07  .245942266243D+01  .130385160446D-07
     .986678102441D+00  .156250000000D+03  .194328456471D+01 -.751531304295D-08
    -.476091259683D-09  .100000000000D+01  .167800000000D+04  .000000000000D+00
     .240000000000D+01  .000000000000D+00 -.111758708954D-07  .850000000000D+02
     .187206000000D+06  .400000000000D+01
14 12  3  6  6  0  0.0  .196149107069D-03  .125055521494D-11  .000000000000D+00
     .130000000000D+02 -.214375000000D+02  .381694470535D-08  .227817963791D+01
    -.102631747723D-05  .613757583778D-02  .112168490887D-04  .515356750488D+04
     .194400000000D+06  .130385160446D-07  .243330080305D+01 -.115483999252D-06
     .979535366883D+00  .172000000000D+03 -.205287063012D+01 -.761888878587D-08
    -.358943522867D-09  .100000000000D+01  .167800000000D+04  .000000000000D+00
     .240000000000D+01  .000000000000D+00 -.884756445885D-08  .130000000000D+02
     .187206000000D+06  .400000000000D+01
15 12  3  6  6  0  0.0 -.922759063542D-04  .341060513165D-12  .000000000000D+00
     .103000000000D+03 -.412500000000D+02  .471698219553D-08  .185472686706D+01
    -.202842056751D-05  .436791311949D-02  .109672546387D-04  .515378009033D+04
     .194400000000D+06 -.521540641785D-07  .234822394050D+01 -.931322574615D-08
     .946358782568D+00  .160562500000D+03  .527124742690D-01 -.811890961375D-08
    -.557880380814D-09  .100000000000D+01  .167800000000D+04  .000000000000D+00
     .340000000000D+01  .000000000000D+00 -.102445483208D-07  .103000000000D+03
     .187206000000D+06  .400000000000D+01
